[{"OBJECT_NAME":"STARLINK-1657","OBJECT_ID":"2020-062AF","EPOCH":"2026-03-10T00:00:02.999808","MEAN_MOTION":15.83582063,"ECCENTRICITY":0.00043426,"INCLINATION":53.0512,"RA_OF_ASC_NODE":327.5676,"ARG_OF_PERICENTER":250.0794,"MEAN_ANOMALY":145.7547,"EPHEMERIS_TYPE":0,"CLASSIFICATION_TYPE":"U","NORAD_CAT_ID":46354,"ELEMENT_SET_NO":999,"REV_AT_EPOCH":598,"BSTAR":0.0010591228,"MEAN_MOTION_DOT":0.00243389,"MEAN_MOTION_DDOT":0},{"OBJECT_NAME":"STARLINK-36769","OBJECT_ID":"2026-034X","EPOCH":"2026-03-09T18:42:58.978656","MEAN_MOTION":15.80970131,"ECCENTRICITY":5.926e-5,"INCLINATION":53.1598,"RA_OF_ASC_NODE":210.7263,"ARG_OF_PERICENTER":44.1802,"MEAN_ANOMALY":315.9268,"EPHEMERIS_TYPE":0,"CLASSIFICATION_TYPE":"U","NORAD_CAT_ID":67871,"ELEMENT_SET_NO":999,"REV_AT_EPOCH":395,"BSTAR":0.0013962291,"MEAN_MOTION_DOT":0.00285459,"MEAN_MOTION_DDOT":0}]
